     2              NAVIGATION DATA                         RINEX VERSION / TYPE
CCRINEXN V1.6.0 UX  CDDIS               22-MAY-18 16:37     PGM / RUN BY / DATE 
IGS BROADCAST EPHEMERIS FILE                                COMMENT             
    0.8382D-08 -0.7451D-08 -0.5960D-07  0.5960D-07          ION ALPHA           
    0.8806D+05 -0.3277D+05 -0.1966D+06  0.1966D+06          ION BETA            
    0.931322574615D-09 0.177635683940D-14   319488     1986 DELTA-UTC: A0,A1,T,W
    18                                                      LEAP SECONDS        
                                                            END OF HEADER       
22 18  1 30 20  0  0.0-0.274834223092D-03-0.129602995003D-10 0.000000000000D+00
    0.730000000000D+02-0.496875000000D+01 0.506663955235D-08-0.190348631285D+01
   -0.137835741043D-06 0.723006762564D-02 0.115558505058D-04 0.515360807610D+04
    0.244800000000D+06 0.987201929092D-07 0.368925526223D+00 0.949949026108D-07
    0.924958072902D+00 0.132906250000D+03-0.161984303264D+01-0.813783884723D-08
    0.672528033263D-09 0.100000000000D+01 0.198600000000D+04 0.000000000000D+00
    0.200000000000D+01 0.000000000000D+00-0.176951289177D-07 0.730000000000D+02
    0.237630000000D+06 0.000000000000D+00 0.000000000000D+00 0.000000000000D+00
23 18  1 30 20  0  0.0-0.219041481614D-03 0.000000000000D+00 0.000000000000D+00
    0.540000000000D+02 0.715625000000D+01 0.556880339159D-08-0.259235257307D+01
    0.121071934700D-06 0.119430152699D-01 0.439584255219D-05 0.515359291458D+04
    0.244800000000D+06 0.165775418282D-06 0.145820502096D+01-0.230967998505D-06
    0.943263332761D+00 0.286937500000D+03-0.240039510143D+01-0.843963725905D-08
    0.211437378644D-09 0.100000000000D+01 0.198600000000D+04 0.000000000000D+00
    0.200000000000D+01 0.000000000000D+00-0.200234353542D-07 0.540000000000D+02
    0.237600000000D+06 0.400000000000D+01 0.000000000000D+00 0.000000000000D+00
24 18  1 30 20  0  0.0-0.454541295767D-04-0.454747350886D-12 0.000000000000D+00
    0.450000000000D+02-0.161250000000D+02 0.494806324955D-08 0.310918208683D+01
   -0.908970832825D-06 0.674885429908D-02 0.110901892185D-04 0.515365912628D+04
    0.244800000000D+06-0.651925802231D-07 0.247943616441D+01-0.128522515297D-06
    0.942750679453D+00 0.155312500000D+03 0.518730746966D+00-0.800140471920D-08
   -0.790032908042D-09 0.100000000000D+01 0.198600000000D+04 0.000000000000D+00
    0.200000000000D+01 0.000000000000D+00 0.279396772385D-08 0.450000000000D+02
    0.237600000000D+06 0.400000000000D+01 0.000000000000D+00 0.000000000000D+00
25 18  1 30 20  0  0.0-0.530841294676D-03-0.613908923697D-11 0.000000000000D+00
    0.770000000000D+02 0.158187500000D+03 0.394230692535D-08 0.114940300959D+01
    0.829435884952D-05 0.707525573671D-02 0.106841325760D-04 0.515370451355D+04
    0.244800000000D+06-0.763684511185D-07-0.271503093605D+01 0.104308128357D-06
    0.975625178499D+00 0.180093750000D+03 0.806934359758D+00-0.793640175800D-08
    0.124648055766D-09 0.100000000000D+01 0.198600000000D+04 0.000000000000D+00
    0.200000000000D+01 0.000000000000D+00 0.558793544769D-08 0.770000000000D+02
    0.000000000000D+00 0.000000000000D+00 0.000000000000D+00 0.000000000000D+00
26 18  1 30 20  0  0.0-0.268260948360D-03 0.137561073643D-10 0.000000000000D+00
    0.102000000000D+03 0.134406250000D+03 0.443375602899D-08 0.660899602630D+00
    0.706501305103D-05 0.261324620806D-02 0.973977148533D-05 0.515360586357D+04
    0.244800000000D+06 0.428408384323D-07-0.273486852653D+01-0.186264514923D-07
    0.957238899311D+00 0.184625000000D+03-0.959479545603D-02-0.804497801710D-08
    0.760745980100D-10 0.100000000000D+01 0.198600000000D+04 0.000000000000D+00
    0.280000000000D+01 0.000000000000D+00 0.745058059692D-08 0.102000000000D+03
    0.237630000000D+06 0.000000000000D+00 0.000000000000D+00 0.000000000000D+00
27 18  1 30 20  0  0.0 0.365138985217D-03 0.170530256582D-11 0.000000000000D+00
    0.460000000000D+02 0.208125000000D+02 0.443447056853D-08-0.117154493157D+01
    0.109896063805D-05 0.540856469888D-02-0.188127160072D-06 0.515367552567D+04
    0.244800000000D+06 0.128522515297D-06-0.167532246870D+01-0.819563865662D-07
    0.976413882986D+00 0.392000000000D+03 0.350585630316D+00-0.841285086040D-08
    0.278583024704D-10 0.100000000000D+01 0.198600000000D+04 0.000000000000D+00
    0.200000000000D+01 0.000000000000D+00 0.186264514923D-08 0.460000000000D+02
    0.241290000000D+06 0.000000000000D+00 0.000000000000D+00 0.000000000000D+00
28 18  1 30 20  0  0.0 0.684450846165D-03 0.341060513165D-11 0.000000000000D+00
    0.720000000000D+02 0.137687500000D+03 0.393766397266D-08-0.357104451794D+00
    0.730901956558D-05 0.198079933179D-01 0.855512917042D-05 0.515367343140D+04
    0.244800000000D+06-0.258907675743D-06-0.263352840953D+01 0.124797224999D-06
    0.987148592987D+00 0.235593750000D+03-0.152876708536D+01-0.814426748263D-08
    0.262868088408D-09 0.100000000000D+01 0.198600000000D+04 0.000000000000D+00
    0.400000000000D+01 0.000000000000D+00-0.111758708954D-07 0.720000000000D+02
    0.237600000000D+06 0.000000000000D+00 0.000000000000D+00 0.000000000000D+00
29 18  1 30 20  0  0.0 0.503588002175D-03-0.557065504836D-11 0.000000000000D+00
    0.770000000000D+02 0.934375000000D+01 0.443732783850D-08 0.199494609911D+00
    0.407919287682D-06 0.468592625111D-03-0.614672899246D-06 0.515374148178D+04
    0.244800000000D+06-0.335276126862D-07-0.161145157508D+01 0.540167093277D-07
    0.982837867874D+00 0.403000000000D+03 0.721970760706D+00-0.849392556290D-08
   -0.135719942229D-10 0.100000000000D+01 0.198600000000D+04 0.000000000000D+00
    0.200000000000D+01 0.000000000000D+00-0.102445483208D-07 0.770000000000D+02
    0.237630000000D+06 0.000000000000D+00 0.000000000000D+00 0.000000000000D+00
30 18  1 30 20  0  0.0 0.107971485704D-03-0.341060513165D-11 0.000000000000D+00
    0.690000000000D+02-0.812500000000D+00 0.490091833782D-08 0.233168208355D+01
    0.372529029846D-08 0.306741078384D-02 0.111442059279D-04 0.515357699585D+04
    0.244800000000D+06-0.391155481338D-07 0.257243117787D+01 0.912696123123D-07
    0.945427428939D+00 0.159187500000D+03-0.311460784518D+01-0.804497801710D-08
   -0.654312992676D-09 0.100000000000D+01 0.198600000000D+04 0.000000000000D+00
    0.200000000000D+01 0.000000000000D+00 0.372529029846D-08 0.690000000000D+02
    0.237600000000D+06 0.000000000000D+00 0.000000000000D+00 0.000000000000D+00
31 18  1 30 20  0  0.0 0.145070254803D-03-0.261479726760D-11 0.000000000000D+00
    0.770000000000D+02-0.146562500000D+02 0.444875691841D-08 0.196854677685D+01
   -0.409781932831D-06 0.882691831794D-02 0.115986913443D-04 0.515360117531D+04
    0.244800000000D+06-0.335276126862D-07 0.254914168882D+01 0.111758708954D-06
    0.964451192235D+00 0.158312500000D+03-0.161699623941D+00-0.780782549725D-08
   -0.859321502844D-09 0.100000000000D+01 0.198600000000D+04 0.000000000000D+00
    0.200000000000D+01 0.000000000000D+00-0.135041773319D-07 0.770000000000D+02
    0.237630000000D+06 0.000000000000D+00 0.000000000000D+00 0.000000000000D+00
32 18  1 30 20  0  0.0-0.532967504114D-03 0.227373675443D-12 0.000000000000D+00
    0.840000000000D+02 0.896875000000D+01 0.529486321454D-08-0.438497186311D+00
    0.480562448502D-06 0.163374666590D-02 0.464916229248D-05 0.515361594582D+04
    0.244800000000D+06-0.745058059692D-08 0.146314063885D+01 0.279396772385D-07
    0.956838968229D+00 0.288093750000D+03-0.269407510563D+01-0.836534841398D-08
    0.163578248169D-09 0.100000000000D+01 0.198600000000D+04 0.000000000000D+00
    0.200000000000D+01 0.000000000000D+00 0.465661287308D-09 0.840000000000D+02
    0.237630000000D+06 0.000000000000D+00 0.000000000000D+00 0.000000000000D+00
 3 18  1 30 21 59 44.0-0.241678208113D-06 0.716227077646D-11 0.000000000000D+00
    0.760000000000D+02-0.878125000000D+01 0.421410417673D-08 0.293860763232D+01
   -0.378116965294D-06 0.119173957501D-02 0.118631869555D-04 0.515357201004D+04
    0.251984000000D+06 0.335276126862D-07 0.424078850049D+00-0.540167093277D-07
    0.960954257728D+00 0.151156250000D+03 0.526054075372D+00-0.776425235216D-08
    0.698243352026D-09 0.100000000000D+01 0.198600000000D+04 0.000000000000D+00
    0.200000000000D+01 0.000000000000D+00 0.232830643654D-08 0.760000000000D+02
    0.244830000000D+06 0.000000000000D+00 0.000000000000D+00 0.000000000000D+00
 4 18  1 30 21 59 44.0 0.352715142071D-04 0.216004991671D-11 0.000000000000D+00
    0.320000000000D+02 0.155218750000D+03 0.518128724998D-08 0.103486319050D+01
    0.828318297863D-05 0.946484052110D-02 0.107493251562D-04 0.515368425179D+04
    0.251984000000D+06-0.670552253723D-07-0.269069949530D+01 0.894069671631D-07
    0.980431313505D+00 0.182125000000D+03 0.893156122486D+00-0.795926010656D-08
    0.120362156424D-09 0.100000000000D+01 0.198600000000D+04 0.000000000000D+00
    0.200000000000D+01 0.630000000000D+02-0.195577740669D-07 0.320000000000D+02
    0.245700000000D+06 0.400000000000D+01 0.000000000000D+00 0.000000000000D+00
26 18  1 30 21 59 44.0-0.268161296844D-03 0.137561073643D-10 0.000000000000D+00
    0.520000000000D+02 0.156875000000D+03 0.436589608910D-08 0.170724877740D+01
    0.838376581669D-05 0.261491280980D-02 0.110045075417D-04 0.515361407661D+04
    0.251984000000D+06 0.596046447754D-07-0.273492643760D+01 0.298023223877D-07
    0.957239490330D+00 0.163156250000D+03-0.805880900746D-02-0.804676414390D-08
    0.103218586456D-09 0.100000000000D+01 0.198600000000D+04 0.000000000000D+00
    0.200000000000D+01 0.000000000000D+00 0.745058059692D-08 0.520000000000D+02
    0.244830000000D+06 0.000000000000D+00 0.000000000000D+00 0.000000000000D+00
